[{"OBJECT_NAME":"STARLINK-30794","OBJECT_ID":"2023-170N","EPOCH":"2026-03-08T10:17:57.464448","MEAN_MOTION":15.26743028,"ECCENTRICITY":0.00018396,"INCLINATION":43.0013,"RA_OF_ASC_NODE":200.7294,"ARG_OF_PERICENTER":260.6139,"MEAN_ANOMALY":99.4504,"EPHEMERIS_TYPE":0,"CLASSIFICATION_TYPE":"U","NORAD_CAT_ID":58218,"ELEMENT_SET_NO":999,"REV_AT_EPOCH":13011,"BSTAR":1.4436452e-5,"MEAN_MOTION_DOT":1.27e-6,"MEAN_MOTION_DDOT":0},{"OBJECT_NAME":"TOMORROW-S4","OBJECT_ID":"2024-247K","EPOCH":"2026-03-09T12:47:35.836224","MEAN_MOTION":15.27717249,"ECCENTRICITY":0.00044343,"INCLINATION":44.9818,"RA_OF_ASC_NODE":117.9996,"ARG_OF_PERICENTER":210.4078,"MEAN_ANOMALY":149.6548,"EPHEMERIS_TYPE":0,"CLASSIFICATION_TYPE":"U","NORAD_CAT_ID":62386,"ELEMENT_SET_NO":999,"REV_AT_EPOCH":6770,"BSTAR":0.00046927249,"MEAN_MOTION_DOT":0.00012677,"MEAN_MOTION_DDOT":0}]
