STARLINK-30794          
1 58218U 23170N   26067.42913732  .00000127  00000+0  14436-4 0  9990
2 58218  43.0013 200.7294 0001839 260.6139  99.4504 15.26743028130114
TOMORROW-S4             
1 62386U 24247K   26068.53305366  .00012677  00000+0  46927-3 0  9990
2 62386  44.9818 117.9996 0004434 210.4078 149.6548 15.27717249 67702
